[{"OBJECT_NAME":"YAOGAN-43 02D","OBJECT_ID":"2024-156D","EPOCH":"2026-03-09T13:08:17.964960","MEAN_MOTION":15.23237701,"ECCENTRICITY":0.000368,"INCLINATION":34.992,"RA_OF_ASC_NODE":104.6408,"ARG_OF_PERICENTER":78.2879,"MEAN_ANOMALY":281.8248,"EPHEMERIS_TYPE":0,"CLASSIFICATION_TYPE":"U","NORAD_CAT_ID":60948,"ELEMENT_SET_NO":999,"REV_AT_EPOCH":8424,"BSTAR":0.00047394,"MEAN_MOTION_DOT":0.0001148,"MEAN_MOTION_DDOT":0},{"OBJECT_NAME":"NASBSAT-1","OBJECT_ID":"2025-313AT","EPOCH":"2026-03-09T22:27:05.348448","MEAN_MOTION":15.23392986,"ECCENTRICITY":0.00090189,"INCLINATION":97.4003,"RA_OF_ASC_NODE":145.3477,"ARG_OF_PERICENTER":353.1124,"MEAN_ANOMALY":6.9987,"EPHEMERIS_TYPE":0,"CLASSIFICATION_TYPE":"U","NORAD_CAT_ID":67289,"ELEMENT_SET_NO":999,"REV_AT_EPOCH":1086,"BSTAR":0.00068712431,"MEAN_MOTION_DOT":0.00016315,"MEAN_MOTION_DDOT":0}]
